CTC1_L_00539032-01
1 53456U 23889FV  26070.40839120  .00000000  00000+0  00000-0 0  9994
2 53456  99.5000  74.4000 0000000   0.0000 148.8000 13.69880518    14
CTC1_L_00539032-02
1 53457U 23853FN  26070.40839120  .00000000  00000+0  00000-0 0  9996
2 53457  99.5000  74.4000 0000000   0.0000 328.8000 13.69880518    15
CTC1_L_00539033-01
1 53458U 23286GH  26070.40839120  .00000000  00000+0  00000-0 0  9997
2 53458  99.5000  76.8000 0000000   0.0000 153.6000 13.69880518    16
CTC1_L_00539033-02
1 53459U 22619CI  26070.40839120  .00000000  00000+0  00000-0 0  9997
2 53459  99.5000  76.8000 0000000   0.0000 333.6000 13.69880518    17
CTC1_L_00539034-01
1 53460U 24589SE  26070.40839120  .00000000  00000+0  00000-0 0  9997
2 53460  99.5000  79.2000 0000000   0.0000 158.4000 13.69880518    19
CTC1_L_00539034-02
1 53461U 25494MJ  26070.40839120  .00000000  00000+0  00000-0 0  9994
2 53461  99.5000  79.2000 0000000   0.0000 338.4000 13.69880518    10
CTC1_L_00539035-01
1 53462U 25680TP  26070.40839120  .00000000  00000+0  00000-0 0  9992
2 53462  99.5000  81.6000 0000000   0.0000 163.2000 13.69880518    12
CTC1_L_00539035-02
1 53463U 23240LA  26070.40839120  .00000000  00000+0  00000-0 0  9993
2 53463  99.5000  81.6000 0000000   0.0000 343.2000 13.69880518    13
CTC1_L_00539036-01
1 53464U 25647KW  26070.40839120  .00000000  00000+0  00000-0 0  9997
2 53464  99.5000  84.0000 0000000   0.0000 168.0000 13.69880518    14
CTC1_L_00539036-02
1 53465U 22266VE  26070.40839120  .00000000  00000+0  00000-0 0  9992
2 53465  99.5000  84.0000 0000000   0.0000 348.0000 13.69880518    15
CTC1_L_00539037-01
1 53466U 22701TS  26070.40839120  .00000000  00000+0  00000-0 0  9997
2 53466  99.5000  86.4000 0000000   0.0000 172.8000 13.69880518    15
CTC1_L_00539037-02
1 53467U 22040UP  26070.40839120  .00000000  00000+0  00000-0 0  9994
2 53467  99.5000  86.4000 0000000   0.0000 352.8000 13.69880518    16
CTC1_L_00539038-01
1 53468U 24717CA  26070.40839120  .00000000  00000+0  00000-0 0  9998
2 53468  99.5000  88.8000 0000000   0.0000 177.6000 13.69880518    16
CTC1_L_00539038-02
1 53469U 23418WJ  26070.40839120  .00000000  00000+0  00000-0 0  9996
2 53469  99.5000  88.8000 0000000   0.0000 357.6000 13.69880518    17
CTC1_L_00539039-01
1 53470U 23728AV  26070.40839120  .00000000  00000+0  00000-0 0  9992
2 53470  99.5000  91.2000 0000000   0.0000 182.4000 13.69880518    11
CTC1_L_00539039-02
1 53471U 22131LV  26070.40839120  .00000000  00000+0  00000-0 0  9990
2 53471  99.5000  91.2000 0000000   0.0000   2.4000 13.69880518    13
CTC1_L_00539040-01
1 53472U 22986KD  26070.40839120  .00000000  00000+0  00000-0 0  9999
2 53472  99.5000  93.6000 0000000   0.0000 187.2000 13.69880518    12
CTC1_L_00539040-02
1 53473U 22665XM  26070.40839120  .00000000  00000+0  00000-0 0  9994
2 53473  99.5000  93.6000 0000000   0.0000   7.2000 13.69880518    14
CTC1_L_00539041-01
1 53474U 26034SQ  26070.40839120  .00000000  00000+0  00000-0 0  9999
2 53474  99.5000  96.0000 0000000   0.0000 192.0000 13.69880518    15
CTC1_L_00539041-02
1 53475U 26649WF  26070.40839120  .00000000  00000+0  00000-0 0  9992
2 53475  99.5000  96.0000 0000000   0.0000  12.0000 13.69880518    17
CTC1_L_00539042-01
1 53476U 23008OT  26070.40839120  .00000000  00000+0  00000-0 0  9999
2 53476  99.5000  98.4000 0000000   0.0000 196.8000 13.69880518    15
CTC1_L_00539042-02
1 53477U 26631ZK  26070.40839120  .00000000  00000+0  00000-0 0  9995
2 53477  99.5000  98.4000 0000000   0.0000  16.8000 13.69880518    17
CTC1_L_00539043-01
1 53478U 26045LG  26070.40839120  .00000000  00000+0  00000-0 0  9995
2 53478  99.5000 100.8000 0000000   0.0000 201.6000 13.69880518    10
CTC1_L_00539043-02
1 53479U 23413UI  26070.40839120  .00000000  00000+0  00000-0 0  9992
2 53479  99.5000 100.8000 0000000   0.0000  21.6000 13.69880518    11
CTC1_L_00539044-01
1 53480U 23641JZ  26070.40839120  .00000000  00000+0  00000-0 0  9997
2 53480  99.5000 103.2000 0000000   0.0000 206.4000 13.69880518    13
CTC1_L_00539044-02
1 53481U 25949OR  26070.40839120  .00000000  00000+0  00000-0 0  9991
2 53481  99.5000 103.2000 0000000   0.0000  26.4000 13.69880518    14
CTC1_L_00539045-01
1 53482U 24765GB  26070.40839120  .00000000  00000+0  00000-0 0  9997
2 53482  99.5000 105.6000 0000000   0.0000 211.2000 13.69880518    15
CTC1_L_00539045-02
1 53483U 22358KJ  26070.40839120  .00000000  00000+0  00000-0 0  9994
2 53483  99.5000 105.6000 0000000   0.0000  31.2000 13.69880518    16
CTC1_L_00539046-01
1 53484U 22355GV  26070.40839120  .00000000  00000+0  00000-0 0  9992
2 53484  99.5000 108.0000 0000000   0.0000 216.0000 13.69880518    17
CTC1_L_00539046-02
1 53485U 25159DZ  26070.40839120  .00000000  00000+0  00000-0 0  9998
2 53485  99.5000 108.0000 0000000   0.0000  36.0000 13.69880518    18
CTC1_L_00539047-01
1 53486U 24578DX  26070.40839120  .00000000  00000+0  00000-0 0  9993
2 53486  99.5000 110.4000 0000000   0.0000 220.8000 13.69880518    19
CTC1_L_00539047-02
1 53487U 23543LV  26070.40839120  .00000000  00000+0  00000-0 0  9995
2 53487  99.5000 110.4000 0000000   0.0000  40.8000 13.69880518    10
CTC1_L_00539048-01
1 53488U 25746ZS  26070.40839120  .00000000  00000+0  00000-0 0  9993
2 53488  99.5000 112.8000 0000000   0.0000 225.6000 13.69880518    10
CTC1_L_00539048-02
1 53489U 22046WA  26070.40839120  .00000000  00000+0  00000-0 0  9994
2 53489  99.5000 112.8000 0000000   0.0000  45.6000 13.69880518    11
CTC1_L_00539049-01
1 53490U 22558SY  26070.40839120  .00000000  00000+0  00000-0 0  9994
2 53490  99.5000 115.2000 0000000   0.0000 230.4000 13.69880518    14
CTC1_L_00539049-02
1 53491U 26174HF  26070.40839120  .00000000  00000+0  00000-0 0  9993
2 53491  99.5000 115.2000 0000000   0.0000  50.4000 13.69880518    15
CTC1_L_00539050-01
1 53492U 26115ZB  26070.40839120  .00000000  00000+0  00000-0 0  9999
2 53492  99.5000 117.6000 0000000   0.0000 235.2000 13.69880518    15
CTC1_L_00539050-02
1 53493U 25760HC  26070.40839120  .00000000  00000+0  00000-0 0  9995
2 53493  99.5000 117.6000 0000000   0.0000  55.2000 13.69880518    16
CTC1_L_00539051-01
1 53494U 26902I   26070.40839120  .00000000  00000+0  00000-0 0  9995
2 53494  99.5000 120.0000 0000000   0.0000 240.0000 13.69880518    19
CTC1_L_00539051-02
1 53495U 24857ES  26070.40839120  .00000000  00000+0  00000-0 0  9993
2 53495  99.5000 120.0000 0000000   0.0000  60.0000 13.69880518    10
CTC1_L_00539052-01
1 53496U 22003Q   26070.40839120  .00000000  00000+0  00000-0 0  9995
2 53496  99.5000 122.4000 0000000   0.0000 244.8000 13.69880518    19
CTC1_L_00539052-02
1 53497U 25147DF  26070.40839120  .00000000  00000+0  00000-0 0  9998
2 53497  99.5000 122.4000 0000000   0.0000  64.8000 13.69880518    10
CTC1_L_00539053-01
1 53498U 22636GC  26070.40839120  .00000000  00000+0  00000-0 0  9999
2 53498  99.5000 124.8000 0000000   0.0000 249.6000 13.69880518    10
CTC1_L_00539053-02
1 53499U 24909DU  26070.40839120  .00000000  00000+0  00000-0 0  9995
2 53499  99.5000 124.8000 0000000   0.0000  69.6000 13.69880518    11
CTC1_L_00539054-01
1 53500U 22802VE  26070.40839120  .00000000  00000+0  00000-0 0  9998
2 53500  99.5000 127.2000 0000000   0.0000 254.4000 13.69880518    15
CTC1_L_00539054-02
1 53501U 23022FV  26070.40839120  .00000000  00000+0  00000-0 0  9994
2 53501  99.5000 127.2000 0000000   0.0000  74.4000 13.69880518    16
CTC1_L_00539055-01
1 53502U 22004MY  26070.40839120  .00000000  00000+0  00000-0 0  9994
2 53502  99.5000 129.6000 0000000   0.0000 259.2000 13.69880518    16
CTC1_L_00539055-02
1 53503U 23650JL  26070.40839120  .00000000  00000+0  00000-0 0  9993
2 53503  99.5000 129.6000 0000000   0.0000  79.2000 13.69880518    17
CTC1_L_00539056-01
1 53504U 24993AY  26070.40839120  .00000000  00000+0  00000-0 0  9995
2 53504  99.5000 132.0000 0000000   0.0000 264.0000 13.69880518    10
CTC1_L_00539056-02
1 53505U 22607VE  26070.40839120  .00000000  00000+0  00000-0 0  9996
2 53505  99.5000 132.0000 0000000   0.0000  84.0000 13.69880518    11
CTC1_L_00539057-01
1 53506U 22355O   26070.40839120  .00000000  00000+0  00000-0 0  9997
2 53506  99.5000 134.4000 0000000   0.0000 268.8000 13.69880518    10
CTC1_L_00539057-02
1 53507U 22403NK  26070.40839120  .00000000  00000+0  00000-0 0  9992
2 53507  99.5000 134.4000 0000000   0.0000  88.8000 13.69880518    11
CTC1_L_00539058-01
1 53508U 25512SM  26070.40839120  .00000000  00000+0  00000-0 0  9997
2 53508  99.5000 136.8000 0000000   0.0000 273.6000 13.69880518    12
CTC1_L_00539058-02
1 53509U 26676CR  26070.40839120  .00000000  00000+0  00000-0 0  9990
2 53509  99.5000 136.8000 0000000   0.0000  93.6000 13.69880518    13
CTC1_L_00539059-01
1 53510U 23557GR  26070.40839120  .00000000  00000+0  00000-0 0  9997
2 53510  99.5000 139.2000 0000000   0.0000 278.4000 13.69880518    15
CTC1_L_00539059-02
1 53511U 24042BK  26070.40839120  .00000000  00000+0  00000-0 0  9998
2 53511  99.5000 139.2000 0000000   0.0000  98.4000 13.69880518    16
CTC1_L_00539060-01
1 53512U 24248HZ  26070.40839120  .00000000  00000+0  00000-0 0  9997
2 53512  99.5000 141.6000 0000000   0.0000 283.2000 13.69880518    18
CTC1_L_00539060-02
1 53513U 25224SP  26070.40839120  .00000000  00000+0  00000-0 0  9993
2 53513  99.5000 141.6000 0000000   0.0000 103.2000 13.69880518    10
CTC1_L_00539061-01
1 53514U 23677NZ  26070.40839120  .00000000  00000+0  00000-0 0  9994
2 53514  99.5000 144.0000 0000000   0.0000 288.0000 13.69880518    10
CTC1_L_00539061-02
1 53515U 24490VL  26070.40839120  .00000000  00000+0  00000-0 0  9999
2 53515  99.5000 144.0000 0000000   0.0000 108.0000 13.69880518    12
CTC1_L_00539062-01
1 53516U 22833ZX  26070.40839120  .00000000  00000+0  00000-0 0  9999
2 53516  99.5000 146.4000 0000000   0.0000 292.8000 13.69880518    11
CTC1_L_00539062-02
1 53517U 22202FJ  26070.40839120  .00000000  00000+0  00000-0 0  9990
2 53517  99.5000 146.4000 0000000   0.0000 112.8000 13.69880518    13
